[{"OBJECT_NAME":"FLOCK 4G-6","OBJECT_ID":"2025-009BD","EPOCH":"2026-03-09T17:03:16.973568","MEAN_MOTION":15.27432125,"ECCENTRICITY":0.00023795,"INCLINATION":97.398,"RA_OF_ASC_NODE":150.7943,"ARG_OF_PERICENTER":348.2637,"MEAN_ANOMALY":11.8546,"EPHEMERIS_TYPE":0,"CLASSIFICATION_TYPE":"U","NORAD_CAT_ID":62660,"ELEMENT_SET_NO":999,"REV_AT_EPOCH":12130,"BSTAR":0.00045909501,"MEAN_MOTION_DOT":0.00012261,"MEAN_MOTION_DDOT":0},{"OBJECT_NAME":"STARLINK-33664","OBJECT_ID":"2025-065S","EPOCH":"2026-03-09T10:49:57.752832","MEAN_MOTION":15.27599527,"ECCENTRICITY":0.0001023,"INCLINATION":42.9974,"RA_OF_ASC_NODE":108.363,"ARG_OF_PERICENTER":280.119,"MEAN_ANOMALY":79.9546,"EPHEMERIS_TYPE":0,"CLASSIFICATION_TYPE":"U","NORAD_CAT_ID":63415,"ELEMENT_SET_NO":999,"REV_AT_EPOCH":5280,"BSTAR":0.0011016914,"MEAN_MOTION_DOT":0.00030196,"MEAN_MOTION_DDOT":0}]
